{
  "type": "FeatureCollection",
  "name": "Human_DC1 Site Logistics Plan",
  "crs": {
    "type": "name",
    "properties": { "name": "urn:ogc:def:crs:OGC:1.3:CRS84-LOCAL" }
  },
  "properties": {
    "project": "Human_DC1",
    "title": "Phase-1 Site Logistics / Zone Map",
    "coordinate_space": "site-local percent (0–100) for FieldClaw map canvas",
    "source": "Sample GC logistics plan (demo) — not surveyed CRS",
    "issued_by": "AE / VDC desk",
    "revision": "A"
  },
  "features": [
    {
      "type": "Feature",
      "properties": {
        "name": "Zone A — Structure",
        "code": "A",
        "use": "structural / building pad",
        "color": "#c45c26"
      },
      "geometry": {
        "type": "Polygon",
        "coordinates": [[[8, 12], [42, 12], [42, 48], [8, 48], [8, 12]]]
      }
    },
    {
      "type": "Feature",
      "properties": {
        "name": "Zone B — Electrical",
        "code": "B",
        "use": "electrical rooms / UPS staging",
        "color": "#b45309"
      },
      "geometry": {
        "type": "Polygon",
        "coordinates": [[[48, 12], [92, 12], [92, 48], [48, 48], [48, 12]]]
      }
    },
    {
      "type": "Feature",
      "properties": {
        "name": "Zone C — Mechanical",
        "code": "C",
        "use": "mechanical yard / chillers",
        "color": "#3f6212"
      },
      "geometry": {
        "type": "Polygon",
        "coordinates": [[[8, 52], [42, 52], [42, 88], [8, 88], [8, 52]]]
      }
    },
    {
      "type": "Feature",
      "properties": {
        "name": "White Space",
        "code": "WS",
        "use": "IT white space / raised floor",
        "color": "#57534e"
      },
      "geometry": {
        "type": "Polygon",
        "coordinates": [[[48, 52], [78, 52], [78, 88], [48, 88], [48, 52]]]
      }
    },
    {
      "type": "Feature",
      "properties": {
        "name": "Laydown Yard",
        "code": "LY",
        "use": "materials laydown",
        "color": "#78716c"
      },
      "geometry": {
        "type": "Polygon",
        "coordinates": [[[80, 52], [96, 52], [96, 72], [80, 72], [80, 52]]]
      }
    },
    {
      "type": "Feature",
      "properties": {
        "name": "Site Office",
        "code": "SO",
        "use": "trailer / site office",
        "color": "#a8a29e"
      },
      "geometry": {
        "type": "Polygon",
        "coordinates": [[[80, 74], [96, 74], [96, 88], [80, 88], [80, 74]]]
      }
    }
  ]
}
