{
  "type": "FeatureCollection",
  "name": "NYC-area active construction sites (OpenStreetMap extract)",
  "properties": {
    "title": "Real OSM landuse=construction polygons \u2014 NYC metro sample",
    "source": "OpenStreetMap contributors via Overpass API",
    "license": "ODbL 1.0 \u2014 https://www.openstreetmap.org/copyright",
    "attribution": "\u00a9 OpenStreetMap contributors",
    "note": "Real lon/lat CRS84. FieldClaw sitemap import normalizes to map canvas.",
    "retrieved": "2026-08-12"
  },
  "features": [
    {
      "type": "Feature",
      "properties": {
        "name": "Hoboken Fan Plant",
        "source": "OpenStreetMap",
        "osm_id": 789637793,
        "osm_type": "way",
        "landuse": "construction",
        "construction": "rail",
        "label": "Hoboken Fan Plant"
      },
      "geometry": {
        "type": "Polygon",
        "coordinates": [
          [
            [
              -74.0322178,
              40.7590823
            ],
            [
              -74.0324737,
              40.7587367
            ],
            [
              -74.0325774,
              40.7587907
            ],
            [
              -74.0333987,
              40.7578923
            ],
            [
              -74.0332396,
              40.7577639
            ],
            [
              -74.0329849,
              40.7579042
            ],
            [
              -74.0327652,
              40.7580007
            ],
            [
              -74.0325335,
              40.758074
            ],
            [
              -74.0322841,
              40.7581275
            ],
            [
              -74.0320622,
              40.7581602
            ],
            [
              -74.0318457,
              40.7581796
            ],
            [
              -74.0316134,
              40.7581861
            ],
            [
              -74.0313984,
              40.7581761
            ],
            [
              -74.0311996,
              40.7581558
            ],
            [
              -74.0309346,
              40.758113
            ],
            [
              -74.0304438,
              40.7580298
            ],
            [
              -74.0302786,
              40.758721
            ],
            [
              -74.0310814,
              40.7588011
            ],
            [
              -74.0311953,
              40.7588135
            ],
            [
              -74.0313039,
              40.7588323
            ],
            [
              -74.0313924,
              40.7588521
            ],
            [
              -74.0322178,
              40.7590823
            ]
          ]
        ]
      }
    },
    {
      "type": "Feature",
      "properties": {
        "name": "Dyer Avenue Deck-Overs",
        "source": "OpenStreetMap",
        "osm_id": 1420034220,
        "osm_type": "way",
        "landuse": "construction",
        "start_date": "2025-05-01",
        "label": "Dyer Avenue Deck-Overs"
      },
      "geometry": {
        "type": "Polygon",
        "coordinates": [
          [
            [
              -73.9966286,
              40.7568406
            ],
            [
              -73.9960444,
              40.7566011
            ],
            [
              -73.9960267,
              40.7565345
            ],
            [
              -73.996019,
              40.7564336
            ],
            [
              -73.9960402,
              40.7563388
            ],
            [
              -73.9960727,
              40.7562651
            ],
            [
              -73.9963113,
              40.7559373
            ],
            [
              -73.995427,
              40.7555623
            ],
            [
              -73.9951697,
              40.7558264
            ],
            [
              -73.995105,
              40.7558964
            ],
            [
              -73.9950722,
              40.7559349
            ],
            [
              -73.9949813,
              40.7560477
            ],
            [
              -73.9949063,
              40.7562045
            ],
            [
              -73.9948919,
              40.7563535
            ],
            [
              -73.9948976,
              40.7564573
            ],
            [
              -73.9946706,
              40.7567732
            ],
            [
              -73.9967141,
              40.7576422
            ],
            [
              -73.9967528,
              40.7575868
            ],
            [
              -73.9959331,
              40.7572472
            ],
            [
              -73.9962794,
              40.7567659
            ],
            [
              -73.9965898,
              40.7568973
            ],
            [
              -73.9966286,
              40.7568406
            ]
          ]
        ]
      }
    },
    {
      "type": "Feature",
      "properties": {
        "name": "BMCR Project",
        "source": "OpenStreetMap",
        "osm_id": 1188140005,
        "osm_type": "way",
        "landuse": "construction",
        "label": "BMCR Project"
      },
      "geometry": {
        "type": "Polygon",
        "coordinates": [
          [
            [
              -73.9959312,
              40.7091867
            ],
            [
              -73.9958941,
              40.7090371
            ],
            [
              -73.995879,
              40.7089835
            ],
            [
              -73.9968171,
              40.7088512
            ],
            [
              -73.9971889,
              40.7087768
            ],
            [
              -73.9975722,
              40.7086863
            ],
            [
              -73.998009,
              40.7085622
            ],
            [
              -73.9982694,
              40.7084766
            ],
            [
              -73.9987112,
              40.7082829
            ],
            [
              -73.9990953,
              40.708099
            ],
            [
              -73.9996024,
              40.7078471
            ],
            [
              -73.9996986,
              40.7079646
            ],
            [
              -73.999523,
              40.7080855
            ],
            [
              -73.9992762,
              40.7082681
            ],
            [
              -73.9988989,
              40.7084841
            ],
            [
              -73.9983873,
              40.7086699
            ],
            [
              -73.998308,
              40.7087016
            ],
            [
              -73.9978223,
              40.7088484
            ],
            [
              -73.9973758,
              40.7089397
            ],
            [
              -73.9963694,
              40.7091222
            ],
            [
              -73.9959312,
              40.7091867
            ]
          ]
        ]
      }
    },
    {
      "type": "Feature",
      "properties": {
        "name": "Wagner Park Construction",
        "source": "OpenStreetMap",
        "osm_id": 1131182643,
        "osm_type": "way",
        "landuse": "construction",
        "label": "Wagner Park Construction"
      },
      "geometry": {
        "type": "Polygon",
        "coordinates": [
          [
            [
              -74.019298,
              40.7057292
            ],
            [
              -74.0190532,
              40.705798
            ],
            [
              -74.0189621,
              40.7058509
            ],
            [
              -74.0189386,
              40.70575
            ],
            [
              -74.0189717,
              40.7057274
            ],
            [
              -74.0186516,
              40.7056621
            ],
            [
              -74.0184359,
              40.7058809
            ],
            [
              -74.0182958,
              40.7060502
            ],
            [
              -74.018109,
              40.705973
            ],
            [
              -74.0181447,
              40.7058243
            ],
            [
              -74.018111,
              40.7054246
            ],
            [
              -74.0179886,
              40.7051942
            ],
            [
              -74.0178434,
              40.7050716
            ],
            [
              -74.0174079,
              40.7048102
            ],
            [
              -74.0175244,
              40.7046589
            ],
            [
              -74.0180566,
              40.7046245
            ],
            [
              -74.0181004,
              40.7045248
            ],
            [
              -74.0189502,
              40.70473
            ],
            [
              -74.019298,
              40.7057292
            ]
          ]
        ]
      }
    },
    {
      "type": "Feature",
      "properties": {
        "name": "655 Madison Avenue",
        "source": "OpenStreetMap",
        "osm_id": 1546096629,
        "osm_type": "way",
        "landuse": "construction",
        "label": "655 Madison Avenue"
      },
      "geometry": {
        "type": "Polygon",
        "coordinates": [
          [
            [
              -73.9705948,
              40.7644742
            ],
            [
              -73.9707738,
              40.7642285
            ],
            [
              -73.9701766,
              40.7639796
            ],
            [
              -73.9699996,
              40.7642226
            ],
            [
              -73.9700349,
              40.7642378
            ],
            [
              -73.9701219,
              40.764274
            ],
            [
              -73.9701119,
              40.7642877
            ],
            [
              -73.969959,
              40.7644983
            ],
            [
              -73.9700253,
              40.7645258
            ],
            [
              -73.9700596,
              40.7644785
            ],
            [
              -73.9700782,
              40.7644529
            ],
            [
              -73.9701547,
              40.7643477
            ],
            [
              -73.9701867,
              40.7643037
            ],
            [
              -73.970285,
              40.764345
            ],
            [
              -73.9704853,
              40.7644285
            ],
            [
              -73.9705217,
              40.7644437
            ],
            [
              -73.9705571,
              40.7644585
            ],
            [
              -73.9705948,
              40.7644742
            ]
          ]
        ]
      }
    },
    {
      "type": "Feature",
      "properties": {
        "name": "Hudson Yard Casing Section 3",
        "source": "OpenStreetMap",
        "osm_id": 1227284883,
        "osm_type": "way",
        "landuse": "construction",
        "construction": "rail",
        "operator": "Amtrak",
        "label": "Hudson Yard Casing Section 3"
      },
      "geometry": {
        "type": "Polygon",
        "coordinates": [
          [
            [
              -74.0057973,
              40.7541138
            ],
            [
              -74.0056798,
              40.7542727
            ],
            [
              -74.0055857,
              40.7542335
            ],
            [
              -74.0053661,
              40.754543
            ],
            [
              -74.0039723,
              40.7539792
            ],
            [
              -74.0032002,
              40.7538173
            ],
            [
              -74.0032926,
              40.7536902
            ],
            [
              -74.0036962,
              40.7537393
            ],
            [
              -74.0038482,
              40.7535286
            ],
            [
              -74.0038508,
              40.7535251
            ],
            [
              -74.004032,
              40.7536008
            ],
            [
              -74.0040298,
              40.7536038
            ],
            [
              -74.0045708,
              40.7538359
            ],
            [
              -74.0046296,
              40.753755
            ],
            [
              -74.0047041,
              40.7536523
            ],
            [
              -74.0057973,
              40.7541138
            ]
          ]
        ]
      }
    },
    {
      "type": "Feature",
      "properties": {
        "name": "The Sutton",
        "source": "OpenStreetMap",
        "osm_id": 301780388,
        "osm_type": "way",
        "landuse": "construction",
        "building": "yes",
        "website": "https://www.thesuttonnyc.com/",
        "label": "The Sutton"
      },
      "geometry": {
        "type": "Polygon",
        "coordinates": [
          [
            [
              -73.9650377,
              40.7556911
            ],
            [
              -73.9651049,
              40.7557194
            ],
            [
              -73.9651098,
              40.755729
            ],
            [
              -73.9652605,
              40.7557925
            ],
            [
              -73.9652761,
              40.7557914
            ],
            [
              -73.9653403,
              40.7558185
            ],
            [
              -73.9653613,
              40.7558123
            ],
            [
              -73.9654168,
              40.7557361
            ],
            [
              -73.9654569,
              40.7556811
            ],
            [
              -73.9654901,
              40.7556364
            ],
            [
              -73.9654437,
              40.7556171
            ],
            [
              -73.965382,
              40.7555911
            ],
            [
              -73.9654123,
              40.7555494
            ],
            [
              -73.9652045,
              40.7554619
            ],
            [
              -73.9650377,
              40.7556911
            ]
          ]
        ]
      }
    },
    {
      "type": "Feature",
      "properties": {
        "name": "Anchorage Plaza",
        "source": "OpenStreetMap",
        "osm_id": 553853785,
        "osm_type": "way",
        "landuse": "construction",
        "construction": "park",
        "operator": "New York City Department of Parks & Recreation",
        "label": "Anchorage Plaza"
      },
      "geometry": {
        "type": "Polygon",
        "coordinates": [
          [
            [
              -73.9898075,
              40.7014378
            ],
            [
              -73.9898857,
              40.7014503
            ],
            [
              -73.9903288,
              40.7015209
            ],
            [
              -73.9907008,
              40.7015738
            ],
            [
              -73.9909411,
              40.7015972
            ],
            [
              -73.9914604,
              40.701618
            ],
            [
              -73.9916096,
              40.7016236
            ],
            [
              -73.9917868,
              40.7016266
            ],
            [
              -73.9911582,
              40.7011405
            ],
            [
              -73.990777,
              40.7008608
            ],
            [
              -73.9906957,
              40.7008383
            ],
            [
              -73.9905758,
              40.7008379
            ],
            [
              -73.9900058,
              40.7008357
            ],
            [
              -73.9898334,
              40.7008318
            ],
            [
              -73.9898075,
              40.7014378
            ]
          ]
        ]
      }
    },
    {
      "type": "Feature",
      "properties": {
        "name": "100 West 37th Street",
        "source": "OpenStreetMap",
        "osm_id": 1202082407,
        "osm_type": "way",
        "landuse": "construction",
        "label": "100 West 37th Street"
      },
      "geometry": {
        "type": "Polygon",
        "coordinates": [
          [
            [
              -73.9869649,
              40.7517263
            ],
            [
              -73.9869826,
              40.7517013
            ],
            [
              -73.9870087,
              40.7517121
            ],
            [
              -73.9870745,
              40.7516197
            ],
            [
              -73.9870827,
              40.7516231
            ],
            [
              -73.9871019,
              40.751596
            ],
            [
              -73.9871054,
              40.7515912
            ],
            [
              -73.9870548,
              40.7515702
            ],
            [
              -73.9868025,
              40.7514659
            ],
            [
              -73.9867808,
              40.751457
            ],
            [
              -73.9866935,
              40.7515791
            ],
            [
              -73.9866147,
              40.7516998
            ],
            [
              -73.9867991,
              40.7517778
            ],
            [
              -73.9868651,
              40.7516852
            ],
            [
              -73.9869649,
              40.7517263
            ]
          ]
        ]
      }
    },
    {
      "type": "Feature",
      "properties": {
        "name": "3 West 29th Street",
        "source": "OpenStreetMap",
        "osm_id": 1275709323,
        "osm_type": "way",
        "landuse": "construction",
        "label": "3 West 29th Street"
      },
      "geometry": {
        "type": "Polygon",
        "coordinates": [
          [
            [
              -73.9874824,
              40.7462799
            ],
            [
              -73.9876434,
              40.746058
            ],
            [
              -73.9876468,
              40.7460534
            ],
            [
              -73.9876648,
              40.7460342
            ],
            [
              -73.9877098,
              40.7459721
            ],
            [
              -73.9878188,
              40.745822
            ],
            [
              -73.9878248,
              40.7458096
            ],
            [
              -73.9876584,
              40.7457373
            ],
            [
              -73.987429,
              40.745641
            ],
            [
              -73.9872696,
              40.7458607
            ],
            [
              -73.9872597,
              40.7458743
            ],
            [
              -73.9872402,
              40.7459012
            ],
            [
              -73.987086,
              40.7461135
            ],
            [
              -73.9873973,
              40.7462442
            ],
            [
              -73.9874824,
              40.7462799
            ]
          ]
        ]
      }
    },
    {
      "type": "Feature",
      "properties": {
        "name": "The Village West",
        "source": "OpenStreetMap",
        "osm_id": 1422498477,
        "osm_type": "way",
        "landuse": "construction",
        "construction": "apartments",
        "building": "construction",
        "website": "https://thevillagewestnyc.com",
        "label": "The Village West"
      },
      "geometry": {
        "type": "Polygon",
        "coordinates": [
          [
            [
              -73.9974769,
              40.7374711
            ],
            [
              -73.9976423,
              40.7372428
            ],
            [
              -73.9975073,
              40.7371862
            ],
            [
              -73.9975209,
              40.7371674
            ],
            [
              -73.9974688,
              40.7371456
            ],
            [
              -73.9974649,
              40.737151
            ],
            [
              -73.9974521,
              40.7371456
            ],
            [
              -73.9972627,
              40.7370662
            ],
            [
              -73.9971905,
              40.7371658
            ],
            [
              -73.9971598,
              40.7372082
            ],
            [
              -73.9971238,
              40.7372579
            ],
            [
              -73.9970876,
              40.7373079
            ],
            [
              -73.997277,
              40.7373873
            ],
            [
              -73.9973419,
              40.7374145
            ],
            [
              -73.9974769,
              40.7374711
            ]
          ]
        ]
      }
    },
    {
      "type": "Feature",
      "properties": {
        "name": "5 World Trade Center",
        "source": "OpenStreetMap",
        "osm_id": 40010491,
        "osm_type": "way",
        "landuse": "construction",
        "construction": "residential",
        "start_date": "2011-11-09",
        "label": "5 World Trade Center"
      },
      "geometry": {
        "type": "Polygon",
        "coordinates": [
          [
            [
              -74.0136231,
              40.7099962
            ],
            [
              -74.0132657,
              40.709828
            ],
            [
              -74.0129631,
              40.7096737
            ],
            [
              -74.0130202,
              40.7095327
            ],
            [
              -74.0130392,
              40.7094859
            ],
            [
              -74.013043,
              40.7094765
            ],
            [
              -74.0130559,
              40.7094447
            ],
            [
              -74.0131209,
              40.7094603
            ],
            [
              -74.0135342,
              40.7095582
            ],
            [
              -74.0136778,
              40.7095588
            ],
            [
              -74.0137749,
              40.7095592
            ],
            [
              -74.013796,
              40.7095631
            ],
            [
              -74.0136617,
              40.7098996
            ],
            [
              -74.0136231,
              40.7099962
            ]
          ]
        ]
      }
    },
    {
      "type": "Feature",
      "properties": {
        "name": "262 Fifth Avenue",
        "source": "OpenStreetMap",
        "osm_id": 265042502,
        "osm_type": "way",
        "landuse": "construction",
        "label": "262 Fifth Avenue"
      },
      "geometry": {
        "type": "Polygon",
        "coordinates": [
          [
            [
              -73.9873893,
              40.7454079
            ],
            [
              -73.9873481,
              40.7454646
            ],
            [
              -73.9870003,
              40.7453184
            ],
            [
              -73.9869829,
              40.7452594
            ],
            [
              -73.9870666,
              40.7451453
            ],
            [
              -73.987142,
              40.7451756
            ],
            [
              -73.9871684,
              40.7451862
            ],
            [
              -73.9871712,
              40.7451874
            ],
            [
              -73.9873121,
              40.7452438
            ],
            [
              -73.9873151,
              40.745245
            ],
            [
              -73.9873087,
              40.7452541
            ],
            [
              -73.9873948,
              40.7452885
            ],
            [
              -73.9874553,
              40.7453146
            ],
            [
              -73.9873893,
              40.7454079
            ]
          ]
        ]
      }
    },
    {
      "type": "Feature",
      "properties": {
        "name": "250 Water Street",
        "source": "OpenStreetMap",
        "osm_id": 165161719,
        "osm_type": "way",
        "landuse": "construction",
        "construction": "residential",
        "operator": "Howard Hughes Corporation",
        "label": "250 Water Street"
      },
      "geometry": {
        "type": "Polygon",
        "coordinates": [
          [
            [
              -74.0024407,
              40.708718
            ],
            [
              -74.0020287,
              40.7082948
            ],
            [
              -74.002024,
              40.7082782
            ],
            [
              -74.0020298,
              40.708264
            ],
            [
              -74.0020423,
              40.7082541
            ],
            [
              -74.0030547,
              40.7077526
            ],
            [
              -74.0030692,
              40.7077472
            ],
            [
              -74.0030912,
              40.7077498
            ],
            [
              -74.0031091,
              40.7077637
            ],
            [
              -74.003306,
              40.7080234
            ],
            [
              -74.0032782,
              40.708119
            ],
            [
              -74.0025842,
              40.7087017
            ],
            [
              -74.0024407,
              40.708718
            ]
          ]
        ]
      }
    },
    {
      "type": "Feature",
      "properties": {
        "name": "Bryant Park 7",
        "source": "OpenStreetMap",
        "osm_id": 218327129,
        "osm_type": "way",
        "landuse": "construction",
        "building": "yes",
        "website": "https://7bryantpark.com/",
        "label": "Bryant Park 7"
      },
      "geometry": {
        "type": "Polygon",
        "coordinates": [
          [
            [
              -73.9856025,
              40.7536225
            ],
            [
              -73.9856653,
              40.7535378
            ],
            [
              -73.9857983,
              40.7533584
            ],
            [
              -73.9858666,
              40.7532662
            ],
            [
              -73.9859133,
              40.7532039
            ],
            [
              -73.9855967,
              40.7530723
            ],
            [
              -73.9855778,
              40.7530993
            ],
            [
              -73.9853009,
              40.7534947
            ],
            [
              -73.985361,
              40.7535198
            ],
            [
              -73.9853296,
              40.7535598
            ],
            [
              -73.9855094,
              40.753636
            ],
            [
              -73.9855392,
              40.7535956
            ],
            [
              -73.9856025,
              40.7536225
            ]
          ]
        ]
      }
    }
  ]
}