{
  "type": "FeatureCollection",
  "name": "Wilbarger Creek RWWTF Phase 1 — Site Zones",
  "crs": {
    "type": "name",
    "properties": { "name": "urn:ogc:def:crs:OGC:1.3:CRS84-LOCAL" }
  },
  "properties": {
    "project": "Wilbarger Creek Regional Wastewater Treatment Facility",
    "title": "Phase-1 process / building zone map (demo logistics)",
    "coordinate_space": "site-local percent (0–100) for FieldClaw map canvas",
    "source": "Derived from GMP1 Exhibit C.1 drawing list (public Legistar 2023-1103) — schematic, not surveyed",
    "address": "10100 Gregg Lane, Pflugerville, TX",
    "revision": "A"
  },
  "features": [
    {
      "type": "Feature",
      "properties": {
        "name": "Influent Lift Station",
        "code": "ILS",
        "use": "influent pumping / ILS electrical",
        "color": "#1e3a5f"
      },
      "geometry": {
        "type": "Polygon",
        "coordinates": [[[4, 8], [28, 8], [28, 28], [4, 28], [4, 8]]]
      }
    },
    {
      "type": "Feature",
      "properties": {
        "name": "Headworks",
        "code": "HW",
        "use": "screening / grit removal",
        "color": "#0f766e"
      },
      "geometry": {
        "type": "Polygon",
        "coordinates": [[[32, 8], [58, 8], [58, 32], [32, 32], [32, 8]]]
      }
    },
    {
      "type": "Feature",
      "properties": {
        "name": "Aeration Basins",
        "code": "AB",
        "use": "biological treatment / A2O",
        "color": "#0369a1"
      },
      "geometry": {
        "type": "Polygon",
        "coordinates": [[[62, 8], [96, 8], [96, 42], [62, 42], [62, 8]]]
      }
    },
    {
      "type": "Feature",
      "properties": {
        "name": "Blower Facility",
        "code": "BLR",
        "use": "aeration blowers / controls",
        "color": "#4338ca"
      },
      "geometry": {
        "type": "Polygon",
        "coordinates": [[[4, 32], [28, 32], [28, 48], [4, 48], [4, 32]]]
      }
    },
    {
      "type": "Feature",
      "properties": {
        "name": "RAS/WAS Pump Station",
        "code": "RAS",
        "use": "return / waste activated sludge",
        "color": "#7c3aed"
      },
      "geometry": {
        "type": "Polygon",
        "coordinates": [[[32, 36], [58, 36], [58, 52], [32, 52], [32, 36]]]
      }
    },
    {
      "type": "Feature",
      "properties": {
        "name": "UV Disinfection",
        "code": "UV",
        "use": "UV / effluent",
        "color": "#ca8a04"
      },
      "geometry": {
        "type": "Polygon",
        "coordinates": [[[62, 46], [96, 46], [96, 62], [62, 62], [62, 46]]]
      }
    },
    {
      "type": "Feature",
      "properties": {
        "name": "Biosolids Handling",
        "code": "BIO",
        "use": "centrifuge / polymer / solids building",
        "color": "#b45309"
      },
      "geometry": {
        "type": "Polygon",
        "coordinates": [[[4, 52], [40, 52], [40, 72], [4, 72], [4, 52]]]
      }
    },
    {
      "type": "Feature",
      "properties": {
        "name": "Ops & Laboratory",
        "code": "OPS",
        "use": "operations / lab building",
        "color": "#15803d"
      },
      "geometry": {
        "type": "Polygon",
        "coordinates": [[[44, 56], [72, 56], [72, 76], [44, 76], [44, 56]]]
      }
    },
    {
      "type": "Feature",
      "properties": {
        "name": "Maintenance Building",
        "code": "MNT",
        "use": "maintenance / storage",
        "color": "#57534e"
      },
      "geometry": {
        "type": "Polygon",
        "coordinates": [[[76, 66], [96, 66], [96, 82], [76, 82], [76, 66]]]
      }
    },
    {
      "type": "Feature",
      "properties": {
        "name": "Main Plant Electrical",
        "code": "ELE",
        "use": "switchgear / generator yard",
        "color": "#991b1b"
      },
      "geometry": {
        "type": "Polygon",
        "coordinates": [[[4, 76], [40, 76], [40, 94], [4, 94], [4, 76]]]
      }
    },
    {
      "type": "Feature",
      "properties": {
        "name": "Laydown / Site Logistics",
        "code": "LAY",
        "use": "trailers / laydown / temp power",
        "color": "#78716c"
      },
      "geometry": {
        "type": "Polygon",
        "coordinates": [[[44, 80], [96, 80], [96, 96], [44, 96], [44, 80]]]
      }
    }
  ]
}
